start=new Date('2021-12-21T00:00:00.000Z').valueOf();
sats=[{"GP_ID":"192110601","BSTAR":"0.00017773000000","NORAD_CAT_ID":"45671","ECCENTRICITY":"0.00018780","PERIAPSIS":"545.888","ELEMENT_SET_NO":"999","OBJECT_ID":"2020-035Q","APOAPSIS":"548.489","MEAN_MOTION_DOT":"0.00002367","MEAN_MOTION_DDOT":"0.0000000000000","OBJECT_NAME":"STARLINK-1454","LAUNCH_DATE":"2020-06-04","EPOCH":"2021-12-20T20:59:00.252672","REF_FRAME":"TEME","RCS_SIZE":"LARGE","ARG_OF_PERICENTER":"103.5000","OBJECT_TYPE":"PAYLOAD","TLE_LINE1":"1 45671U 20035Q   21354.87430848  .00002367  00000-0  17773-3 0  9996","PERIOD":"95.592","RA_OF_ASC_NODE":"139.1177","MEAN_ANOMALY":"256.6198","MEAN_MOTION":"15.06408267","TIME_SYSTEM":"UTC","CENTER_NAME":"EARTH","TLE_LINE2":"2 45671  53.0537 139.1177 0001878 103.5000 256.6198 15.06408267 86639","COUNTRY_CODE":"US","CLASSIFICATION_TYPE":"U","SEMIMAJOR_AXIS":"6925.323","FILE":"3245895","DECAY_DATE":null,"MEAN_ELEMENT_THEORY":"SGP4","INCLINATION":"53.0537","SITE":"AFETR","EPHEMERIS_TYPE":"0","REV_AT_EPOCH":"8663"},{"RA_OF_ASC_NODE":"109.6790","PERIOD":"95.592","TLE_LINE1":"1 45672U 20035R   21354.75175368 -.00000141  00000-0  93967-5 0  9997","OBJECT_TYPE":"PAYLOAD","ARG_OF_PERICENTER":"89.3274","RCS_SIZE":"LARGE","REF_FRAME":"TEME","EPOCH":"2021-12-20T18:02:31.517952","LAUNCH_DATE":"2020-06-04","OBJECT_NAME":"STARLINK-1455","MEAN_MOTION_DDOT":"0.0000000000000","MEAN_MOTION_DOT":"-0.00000141","APOAPSIS":"548.166","OBJECT_ID":"2020-035R","ELEMENT_SET_NO":"999","PERIAPSIS":"546.274","ECCENTRICITY":"0.00013660","NORAD_CAT_ID":"45672","GP_ID":"192110853","BSTAR":"0.00000939670000","REV_AT_EPOCH":"8704","EPHEMERIS_TYPE":"0","SITE":"AFETR","INCLINATION":"53.0546","MEAN_ELEMENT_THEORY":"SGP4","DECAY_DATE":null,"FILE":"3245895","SEMIMAJOR_AXIS":"6925.355","CLASSIFICATION_TYPE":"U","COUNTRY_CODE":"US","TLE_LINE2":"2 45672  53.0546 109.6790 0001366  89.3274 270.7872 15.06397907 87049","CENTER_NAME":"EARTH","TIME_SYSTEM":"UTC","MEAN_MOTION":"15.06397907","MEAN_ANOMALY":"270.7872"},{"REF_FRAME":"TEME","PERIOD":"95.592","RA_OF_ASC_NODE":"139.6517","ARG_OF_PERICENTER":"86.6352","TLE_LINE1":"1 45673U 20035S   21354.75635847  .00000150  00000-0  28969-4 0  9999","OBJECT_TYPE":"PAYLOAD","RCS_SIZE":"LARGE","OBJECT_ID":"2020-035S","ELEMENT_SET_NO":"999","ECCENTRICITY":"0.00019180","PERIAPSIS":"545.858","NORAD_CAT_ID":"45673","GP_ID":"192111104","BSTAR":"0.00002896900000","OBJECT_NAME":"STARLINK-1456","LAUNCH_DATE":"2020-06-04","EPOCH":"2021-12-20T18:09:09.371808","MEAN_MOTION_DOT":"0.00000150","MEAN_MOTION_DDOT":"0.0000000000000","APOAPSIS":"548.515","DECAY_DATE":null,"FILE":"3245895","SEMIMAJOR_AXIS":"6925.321","CLASSIFICATION_TYPE":"U","REV_AT_EPOCH":"8663","INCLINATION":"53.0528","SITE":"AFETR","EPHEMERIS_TYPE":"0","MEAN_ELEMENT_THEORY":"SGP4","MEAN_ANOMALY":"273.4857","MEAN_MOTION":"15.06408918","COUNTRY_CODE":"US","TLE_LINE2":"2 45673  53.0528 139.6517 0001918  86.6352 273.4857 15.06408918 86632","CENTER_NAME":"EARTH","TIME_SYSTEM":"UTC"},{"TIME_SYSTEM":"UTC","CENTER_NAME":"EARTH","TLE_LINE2":"2 45674  53.0539 139.3181 0001839  95.9930 264.1269 15.06404697 86618","COUNTRY_CODE":"US","MEAN_MOTION":"15.06404697","MEAN_ANOMALY":"264.1269","MEAN_ELEMENT_THEORY":"SGP4","INCLINATION":"53.0539","SITE":"AFETR","EPHEMERIS_TYPE":"0","REV_AT_EPOCH":"8661","CLASSIFICATION_TYPE":"U","SEMIMAJOR_AXIS":"6925.334","FILE":"3245895","DECAY_DATE":null,"APOAPSIS":"548.473","MEAN_MOTION_DOT":"0.00000341","MEAN_MOTION_DDOT":"0.0000000000000","OBJECT_NAME":"STARLINK-1457","LAUNCH_DATE":"2020-06-04","EPOCH":"2021-12-20T19:55:18.898176","GP_ID":"192109852","NORAD_CAT_ID":"45674","BSTAR":"0.00004181800000","ECCENTRICITY":"0.00018390","PERIAPSIS":"545.926","OBJECT_ID":"2020-035T","ELEMENT_SET_NO":"999","RCS_SIZE":"LARGE","ARG_OF_PERICENTER":"95.9930","TLE_LINE1":"1 45674U 20035T   21354.83007984  .00000341  00000-0  41818-4 0  9994","OBJECT_TYPE":"PAYLOAD","PERIOD":"95.592","RA_OF_ASC_NODE":"139.3181","REF_FRAME":"TEME"},{"TIME_SYSTEM":"UTC","CENTER_NAME":"EARTH","TLE_LINE2":"2 45675  53.0524 139.3691 0001864  87.8421 272.2781 15.06405560 86228","COUNTRY_CODE":"US","MEAN_MOTION":"15.06405560","MEAN_ANOMALY":"272.2781","MEAN_ELEMENT_THEORY":"SGP4","SITE":"AFETR","EPHEMERIS_TYPE":"0","INCLINATION":"53.0524","REV_AT_EPOCH":"8622","CLASSIFICATION_TYPE":"U","SEMIMAJOR_AXIS":"6925.332","FILE":"3245628","DECAY_DATE":null,"APOAPSIS":"548.487","MEAN_MOTION_DDOT":"0.0000000000000","MEAN_MOTION_DOT":"0.00002497","EPOCH":"2021-12-20T19:39:23.175936","LAUNCH_DATE":"2020-06-04","OBJECT_NAME":"STARLINK-1458","GP_ID":"192085253","BSTAR":"0.00018644000000","NORAD_CAT_ID":"45675","PERIAPSIS":"545.906","ECCENTRICITY":"0.00018640","ELEMENT_SET_NO":"999","OBJECT_ID":"2020-035U","RCS_SIZE":"LARGE","OBJECT_TYPE":"PAYLOAD","TLE_LINE1":"1 45675U 20035U   21354.81901824  .00002497  00000-0  18644-3 0  9993","ARG_OF_PERICENTER":"87.8421","RA_OF_ASC_NODE":"139.3691","PERIOD":"95.592","REF_FRAME":"TEME"},{"REF_FRAME":"TEME","RCS_SIZE":"LARGE","PERIOD":"95.592","RA_OF_ASC_NODE":"139.7881","ARG_OF_PERICENTER":"94.1705","OBJECT_TYPE":"PAYLOAD","TLE_LINE1":"1 45676U 20035V   21354.72318491  .00002305  00000-0  17360-3 0  9998","NORAD_CAT_ID":"45676","GP_ID":"192111353","BSTAR":"0.00017360000000","OBJECT_ID":"2020-035V","ELEMENT_SET_NO":"999","ECCENTRICITY":"0.00020300","PERIAPSIS":"545.787","APOAPSIS":"548.598","OBJECT_NAME":"STARLINK-1460","LAUNCH_DATE":"2020-06-04","EPOCH":"2021-12-20T17:21:23.176224","MEAN_MOTION_DOT":"0.00002305","MEAN_MOTION_DDOT":"0.0000000000000","SEMIMAJOR_AXIS":"6925.328","CLASSIFICATION_TYPE":"U","DECAY_DATE":null,"FILE":"3245895","INCLINATION":"53.0550","SITE":"AFETR","EPHEMERIS_TYPE":"0","MEAN_ELEMENT_THEORY":"SGP4","REV_AT_EPOCH":"8658","MEAN_MOTION":"15.06406822","MEAN_ANOMALY":"265.9516","CENTER_NAME":"EARTH","TIME_SYSTEM":"UTC","COUNTRY_CODE":"US","TLE_LINE2":"2 45676  53.0550 139.7881 0002030  94.1705 265.9516 15.06406822 86581"},{"REV_AT_EPOCH":"8664","SITE":"AFETR","EPHEMERIS_TYPE":"0","INCLINATION":"53.0547","MEAN_ELEMENT_THEORY":"SGP4","DECAY_DATE":null,"FILE":"3245895","SEMIMAJOR_AXIS":"6925.341","CLASSIFICATION_TYPE":"U","COUNTRY_CODE":"US","TLE_LINE2":"2 45677  53.0547 139.1616 0001771  96.6043 263.5148 15.06402551 86648","CENTER_NAME":"EARTH","TIME_SYSTEM":"UTC","MEAN_MOTION":"15.06402551","MEAN_ANOMALY":"263.5148","RA_OF_ASC_NODE":"139.1616","PERIOD":"95.592","OBJECT_TYPE":"PAYLOAD","TLE_LINE1":"1 45677U 20035W   21354.86693701  .00000438  00000-0  48281-4 0  9996","ARG_OF_PERICENTER":"96.6043","RCS_SIZE":"LARGE","REF_FRAME":"TEME","EPOCH":"2021-12-20T20:48:23.357664","OBJECT_NAME":"STARLINK-1392","LAUNCH_DATE":"2020-06-04","MEAN_MOTION_DDOT":"0.0000000000000","MEAN_MOTION_DOT":"0.00000438","APOAPSIS":"548.432","ELEMENT_SET_NO":"999","OBJECT_ID":"2020-035W","PERIAPSIS":"545.979","ECCENTRICITY":"0.00017710","GP_ID":"192111604","NORAD_CAT_ID":"45677","BSTAR":"0.00004828100000"},{"REF_FRAME":"TEME","RCS_SIZE":"LARGE","ARG_OF_PERICENTER":"95.4810","OBJECT_TYPE":"PAYLOAD","TLE_LINE1":"1 45678U 20035X   21354.86048465  .00000143  00000-0  28478-4 0  9997","PERIOD":"95.592","RA_OF_ASC_NODE":"129.1770","NORAD_CAT_ID":"45678","GP_ID":"192110352","BSTAR":"0.00002847800000","ECCENTRICITY":"0.00017080","PERIAPSIS":"546.013","ELEMENT_SET_NO":"999","OBJECT_ID":"2020-035X","APOAPSIS":"548.379","MEAN_MOTION_DOT":"0.00000143","MEAN_MOTION_DDOT":"0.0000000000000","LAUNCH_DATE":"2020-06-04","OBJECT_NAME":"STARLINK-1393","EPOCH":"2021-12-20T20:39:05.873760","CLASSIFICATION_TYPE":"U","SEMIMAJOR_AXIS":"6925.331","FILE":"3245895","DECAY_DATE":null,"MEAN_ELEMENT_THEORY":"SGP4","INCLINATION":"53.0532","SITE":"AFETR","EPHEMERIS_TYPE":"0","REV_AT_EPOCH":"8676","MEAN_MOTION":"15.06405628","MEAN_ANOMALY":"264.6373","TIME_SYSTEM":"UTC","CENTER_NAME":"EARTH","TLE_LINE2":"2 45678  53.0532 129.1770 0001708  95.4810 264.6373 15.06405628 86765","COUNTRY_CODE":"US"},{"REF_FRAME":"TEME","RCS_SIZE":"LARGE","ARG_OF_PERICENTER":"101.6999","OBJECT_TYPE":"PAYLOAD","TLE_LINE1":"1 45679U 20035Y   21354.86418502  .00001065  00000-0  90369-4 0  9993","PERIOD":"95.591","RA_OF_ASC_NODE":"129.1692","GP_ID":"192110602","BSTAR":"0.00009036900000","NORAD_CAT_ID":"45679","ECCENTRICITY":"0.00019080","PERIAPSIS":"545.845","ELEMENT_SET_NO":"999","OBJECT_ID":"2020-035Y","APOAPSIS":"548.487","MEAN_MOTION_DOT":"0.00001065","MEAN_MOTION_DDOT":"0.0000000000000","OBJECT_NAME":"STARLINK-1394","LAUNCH_DATE":"2020-06-04","EPOCH":"2021-12-20T20:44:25.585728","CLASSIFICATION_TYPE":"U","SEMIMAJOR_AXIS":"6925.301","FILE":"3245895","DECAY_DATE":null,"MEAN_ELEMENT_THEORY":"SGP4","INCLINATION":"53.0547","SITE":"AFETR","EPHEMERIS_TYPE":"0","REV_AT_EPOCH":"8678","MEAN_ANOMALY":"258.4204","MEAN_MOTION":"15.06415502","TIME_SYSTEM":"UTC","CENTER_NAME":"EARTH","TLE_LINE2":"2 45679  53.0547 129.1692 0001908 101.6999 258.4204 15.06415502 86783","COUNTRY_CODE":"US"},{"APOAPSIS":"548.477","MEAN_MOTION_DOT":"-0.00000578","MEAN_MOTION_DDOT":"0.0000000000000","LAUNCH_DATE":"2020-06-04","OBJECT_NAME":"STARLINK-1395","EPOCH":"2021-12-20T17:43:57.214560","NORAD_CAT_ID":"45680","GP_ID":"192110854","BSTAR":"-0.00001992400000","ECCENTRICITY":"0.00018590","PERIAPSIS":"545.902","ELEMENT_SET_NO":"999","OBJECT_ID":"2020-035Z","RCS_SIZE":"LARGE","ARG_OF_PERICENTER":"100.7571","TLE_LINE1":"1 45680U 20035Z   21354.73885665 -.00000578  00000-0 -19924-4 0  9997","OBJECT_TYPE":"PAYLOAD","PERIOD":"95.592","RA_OF_ASC_NODE":"129.7336","REF_FRAME":"TEME","TIME_SYSTEM":"UTC","CENTER_NAME":"EARTH","TLE_LINE2":"2 45680  53.0546 129.7336 0001859 100.7571 259.3628 15.06407880 86753","COUNTRY_CODE":"US","MEAN_ANOMALY":"259.3628","MEAN_MOTION":"15.06407880","MEAN_ELEMENT_THEORY":"SGP4","INCLINATION":"53.0546","EPHEMERIS_TYPE":"0","SITE":"AFETR","REV_AT_EPOCH":"8675","CLASSIFICATION_TYPE":"U","SEMIMAJOR_AXIS":"6925.324","FILE":"3245895","DECAY_DATE":null}];
